0 SL-16 DEB
1 23408U 94077E   13281.83548902  .00000061  00000-0  98424-4 0  5835
2 23408 070.9852 129.0723 0212577 087.1189 011.9358 13.70316014943911
0 SL-16 DEB
1 23408U 94077E   13284.02942634  .00000116  00000-0  15156-3 0  5841
2 23408 070.9850 124.7903 0212615 083.9977 034.9652 13.70316798944218
0 SL-16 DEB
1 23408U 94077E   13286.49577196  .00000081  00000-0  11787-3 0  5859
2 23408 070.9849 119.9766 0212674 080.4871 321.8313 13.70317787944557
0 SL-16 DEB
1 23408U 94077E   13288.53791220  .00000088  00000-0  12497-3 0  5869
2 23408 070.9851 115.9908 0212707 077.5802 316.0326 13.70318739944831
0 SL-16 DEB
1 23408U 94077E   13290.58667576  .00000070  00000-0  10795-3 0  5874
2 23408 070.9854 111.9920 0212749 074.6602 342.9194 13.70319349945117
0 SL-16 DEB
1 23408U 94077E   13292.85975899  .00000111  00000-0  14696-3 0  5887
2 23408 070.9859 107.5556 0212811 071.4222 036.4169 13.70319659945426
0 SL-16 DEB
1 23408U 94077E   13295.47242721  .00000125  00000-0  16033-3 0  5892
2 23408 070.9862 102.4564 0212895 067.7060 325.1404 13.70320379945783
